FENGYUN 1C DEB          
1 30270U 99025YF  17345.94897229  .00000055  00000-0  56325-4 0  9992
2 30270  98.9844   7.9453 0007959 139.6176 284.5402 14.10199606561584
